start=new Date('2023-06-06T00:00:00.000Z').valueOf();
sats=[{"CENTER_NAME":"EARTH","INCLINATION":"69.9971","MEAN_MOTION_DOT":"0.00001033","LAUNCH_DATE":"2023-05-10","CLASSIFICATION_TYPE":"U","RCS_SIZE":"LARGE","TLE_LINE2":"2 56453  69.9971 172.0678 0003699 267.3672  92.7100 15.69924992  4118","DECAY_DATE":null,"TIME_SYSTEM":"UTC","MEAN_MOTION":"15.69924992","EPOCH":"2023-06-05T18:39:41.816448","ARG_OF_PERICENTER":"267.3672","ELEMENT_SET_NO":"999","RA_OF_ASC_NODE":"172.0678","GP_ID":"233289030","OBJECT_ID":"2023-064F","NORAD_CAT_ID":"56453","OBJECT_NAME":"STARLINK-5935","SITE":"AFWTR","MEAN_ANOMALY":"92.7100","MEAN_MOTION_DDOT":"0.0000000000000","SEMIMAJOR_AXIS":"6737.249","BSTAR":"0.00001036300000","PERIAPSIS":"356.621","REV_AT_EPOCH":"411","EPHEMERIS_TYPE":"0","FILE":"3925751","OBJECT_TYPE":"PAYLOAD","MEAN_ELEMENT_THEORY":"SGP4","REF_FRAME":"TEME","TLE_LINE1":"1 56453U 23064F   23156.77756732  .00001033  00000-0  10363-4 0  9993","ECCENTRICITY":"0.00036990","APOAPSIS":"361.606","COUNTRY_CODE":"US","PERIOD":"91.724"},{"COUNTRY_CODE":"US","PERIOD":"91.724","APOAPSIS":"361.474","TLE_LINE1":"1 56454U 23064G   23156.77693474  .00000792  00000-0  83528-5 0  9992","ECCENTRICITY":"0.00035050","EPHEMERIS_TYPE":"0","FILE":"3925751","OBJECT_TYPE":"PAYLOAD","MEAN_ELEMENT_THEORY":"SGP4","REF_FRAME":"TEME","BSTAR":"0.00000835280000","REV_AT_EPOCH":"411","PERIAPSIS":"356.752","OBJECT_NAME":"STARLINK-5959","SITE":"AFWTR","MEAN_ANOMALY":"90.8854","SEMIMAJOR_AXIS":"6737.248","MEAN_MOTION_DDOT":"0.0000000000000","OBJECT_ID":"2023-064G","NORAD_CAT_ID":"56454","RA_OF_ASC_NODE":"172.0684","GP_ID":"233289201","ELEMENT_SET_NO":"999","DECAY_DATE":null,"TIME_SYSTEM":"UTC","EPOCH":"2023-06-05T18:38:47.161536","MEAN_MOTION":"15.69925198","ARG_OF_PERICENTER":"269.1940","TLE_LINE2":"2 56454  69.9979 172.0684 0003505 269.1940  90.8854 15.69925198  4112","LAUNCH_DATE":"2023-05-10","CLASSIFICATION_TYPE":"U","RCS_SIZE":"LARGE","INCLINATION":"69.9979","CENTER_NAME":"EARTH","MEAN_MOTION_DOT":"0.00000792"},{"APOAPSIS":"361.437","PERIOD":"91.724","COUNTRY_CODE":"US","TLE_LINE1":"1 56455U 23064H   23156.77683128  .00000613  00000-0  68653-5 0  9992","ECCENTRICITY":"0.00034370","REV_AT_EPOCH":"411","PERIAPSIS":"356.806","BSTAR":"0.00000686530000","REF_FRAME":"TEME","MEAN_ELEMENT_THEORY":"SGP4","FILE":"3925751","OBJECT_TYPE":"PAYLOAD","EPHEMERIS_TYPE":"0","NORAD_CAT_ID":"56455","OBJECT_ID":"2023-064H","SEMIMAJOR_AXIS":"6737.257","MEAN_MOTION_DDOT":"0.0000000000000","MEAN_ANOMALY":"91.5851","SITE":"AFWTR","OBJECT_NAME":"STARLINK-5987","ELEMENT_SET_NO":"999","GP_ID":"233289315","RA_OF_ASC_NODE":"172.0663","TLE_LINE2":"2 56455  69.9971 172.0663 0003437 268.4951  91.5851 15.69922196  4110","ARG_OF_PERICENTER":"268.4951","EPOCH":"2023-06-05T18:38:38.222592","MEAN_MOTION":"15.69922196","DECAY_DATE":null,"TIME_SYSTEM":"UTC","MEAN_MOTION_DOT":"0.00000613","CENTER_NAME":"EARTH","INCLINATION":"69.9971","RCS_SIZE":"LARGE","CLASSIFICATION_TYPE":"U","LAUNCH_DATE":"2023-05-10"},{"APOAPSIS":"361.369","PERIOD":"91.724","COUNTRY_CODE":"US","TLE_LINE1":"1 56456U 23064J   23156.77725386  .00000893  00000-0  91957-5 0  9999","ECCENTRICITY":"0.00033300","BSTAR":"0.00000919570000","REV_AT_EPOCH":"411","PERIAPSIS":"356.882","OBJECT_TYPE":"PAYLOAD","FILE":"3925751","EPHEMERIS_TYPE":"0","REF_FRAME":"TEME","MEAN_ELEMENT_THEORY":"SGP4","OBJECT_ID":"2023-064J","NORAD_CAT_ID":"56456","SITE":"AFWTR","OBJECT_NAME":"STARLINK-5995","MEAN_MOTION_DDOT":"0.0000000000000","SEMIMAJOR_AXIS":"6737.261","MEAN_ANOMALY":"89.7157","ELEMENT_SET_NO":"999","RA_OF_ASC_NODE":"172.0679","GP_ID":"233289144","TLE_LINE2":"2 56456  69.9966 172.0679 0003330 270.3657  89.7157 15.69920774  4117","TIME_SYSTEM":"UTC","DECAY_DATE":null,"ARG_OF_PERICENTER":"270.3657","EPOCH":"2023-06-05T18:39:14.733504","MEAN_MOTION":"15.69920774","INCLINATION":"69.9966","CENTER_NAME":"EARTH","MEAN_MOTION_DOT":"0.00000893","CLASSIFICATION_TYPE":"U","LAUNCH_DATE":"2023-05-10","RCS_SIZE":"LARGE"},{"TLE_LINE1":"1 56457U 23064K   23156.77704391 -.00002040  00000-0 -15200-4 0  9997","ECCENTRICITY":"0.00033580","COUNTRY_CODE":"US","PERIOD":"91.724","APOAPSIS":"361.376","MEAN_ANOMALY":"98.3664","MEAN_MOTION_DDOT":"0.0000000000000","SEMIMAJOR_AXIS":"6737.248","OBJECT_NAME":"STARLINK-5994","SITE":"AFWTR","NORAD_CAT_ID":"56457","OBJECT_ID":"2023-064K","MEAN_ELEMENT_THEORY":"SGP4","REF_FRAME":"TEME","EPHEMERIS_TYPE":"0","FILE":"3925751","OBJECT_TYPE":"PAYLOAD","PERIAPSIS":"356.851","REV_AT_EPOCH":"411","BSTAR":"-0.00001520000000","MEAN_MOTION":"15.69925050","EPOCH":"2023-06-05T18:38:56.593824","ARG_OF_PERICENTER":"261.7151","DECAY_DATE":null,"TIME_SYSTEM":"UTC","TLE_LINE2":"2 56457  69.9975 172.0657 0003358 261.7151  98.3664 15.69925050  4118","GP_ID":"233289258","RA_OF_ASC_NODE":"172.0657","ELEMENT_SET_NO":"999","RCS_SIZE":"LARGE","LAUNCH_DATE":"2023-05-10","CLASSIFICATION_TYPE":"U","MEAN_MOTION_DOT":"-0.00002040","CENTER_NAME":"EARTH","INCLINATION":"69.9975"},{"FILE":"3925691","OBJECT_TYPE":"PAYLOAD","EPHEMERIS_TYPE":"0","REF_FRAME":"TEME","MEAN_ELEMENT_THEORY":"SGP4","BSTAR":"0.00001199700000","REV_AT_EPOCH":"407","PERIAPSIS":"356.748","SITE":"AFWTR","OBJECT_NAME":"STARLINK-6050","MEAN_MOTION_DDOT":"0.0000000000000","SEMIMAJOR_AXIS":"6737.235","MEAN_ANOMALY":"93.6636","OBJECT_ID":"2023-064L","NORAD_CAT_ID":"56458","PERIOD":"91.724","COUNTRY_CODE":"US","APOAPSIS":"361.453","ECCENTRICITY":"0.00034920","TLE_LINE1":"1 56458U 23064L   23156.52227600  .00001230  00000-0  11997-4 0  9991","CLASSIFICATION_TYPE":"U","LAUNCH_DATE":"2023-05-10","RCS_SIZE":"LARGE","INCLINATION":"69.9979","CENTER_NAME":"EARTH","MEAN_MOTION_DOT":"0.00001230","RA_OF_ASC_NODE":"172.7834","GP_ID":"233261184","ELEMENT_SET_NO":"999","DECAY_DATE":null,"TIME_SYSTEM":"UTC","ARG_OF_PERICENTER":"266.4160","MEAN_MOTION":"15.69929619","EPOCH":"2023-06-05T12:32:04.646400","TLE_LINE2":"2 56458  69.9979 172.7834 0003492 266.4160  93.6636 15.69929619  4075"},{"RCS_SIZE":"LARGE","CLASSIFICATION_TYPE":"U","LAUNCH_DATE":"2023-05-10","MEAN_MOTION_DOT":"0.00001431","INCLINATION":"69.9968","CENTER_NAME":"EARTH","GP_ID":"233289087","RA_OF_ASC_NODE":"172.0652","ELEMENT_SET_NO":"999","ARG_OF_PERICENTER":"272.5072","EPOCH":"2023-06-05T18:38:02.029632","MEAN_MOTION":"15.69919046","DECAY_DATE":null,"TIME_SYSTEM":"UTC","TLE_LINE2":"2 56459  69.9968 172.0652 0003234 272.5072  87.5753 15.69919046  4119","REF_FRAME":"TEME","MEAN_ELEMENT_THEORY":"SGP4","OBJECT_TYPE":"PAYLOAD","FILE":"3925751","EPHEMERIS_TYPE":"0","PERIAPSIS":"356.952","REV_AT_EPOCH":"411","BSTAR":"0.00001367300000","SEMIMAJOR_AXIS":"6737.266","MEAN_MOTION_DDOT":"0.0000000000000","MEAN_ANOMALY":"87.5753","SITE":"AFWTR","OBJECT_NAME":"STARLINK-6048","NORAD_CAT_ID":"56459","OBJECT_ID":"2023-064M","PERIOD":"91.724","COUNTRY_CODE":"US","APOAPSIS":"361.309","TLE_LINE1":"1 56459U 23064M   23156.77641238  .00001431  00000-0  13673-4 0  9992","ECCENTRICITY":"0.00032340"},{"RCS_SIZE":"LARGE","CLASSIFICATION_TYPE":"U","LAUNCH_DATE":"2023-05-10","MEAN_MOTION_DOT":"0.00001305","INCLINATION":"69.9983","CENTER_NAME":"EARTH","ARG_OF_PERICENTER":"264.2347","EPOCH":"2023-06-05T18:38:28.919040","MEAN_MOTION":"15.69924228","DECAY_DATE":null,"TIME_SYSTEM":"UTC","TLE_LINE2":"2 56460  69.9983 172.0653 0003479 264.2347  95.8452 15.69924228  4119","GP_ID":"233288916","RA_OF_ASC_NODE":"172.0653","ELEMENT_SET_NO":"999","SEMIMAJOR_AXIS":"6737.251","MEAN_MOTION_DDOT":"0.0000000000000","MEAN_ANOMALY":"95.8452","SITE":"AFWTR","OBJECT_NAME":"STARLINK-6047","NORAD_CAT_ID":"56460","OBJECT_ID":"2023-064N","REF_FRAME":"TEME","MEAN_ELEMENT_THEORY":"SGP4","OBJECT_TYPE":"PAYLOAD","FILE":"3925751","EPHEMERIS_TYPE":"0","PERIAPSIS":"356.772","REV_AT_EPOCH":"411","BSTAR":"0.00001262300000","ECCENTRICITY":"0.00034790","TLE_LINE1":"1 56460U 23064N   23156.77672360  .00001305  00000-0  12623-4 0  9998","PERIOD":"91.724","COUNTRY_CODE":"US","APOAPSIS":"361.460"},{"INCLINATION":"69.9967","CENTER_NAME":"EARTH","MEAN_MOTION_DOT":"0.00001723","LAUNCH_DATE":"2023-05-10","CLASSIFICATION_TYPE":"U","RCS_SIZE":"LARGE","ELEMENT_SET_NO":"999","RA_OF_ASC_NODE":"172.0630","GP_ID":"233289031","TLE_LINE2":"2 56461  69.9967 172.0630 0003536 266.8532  93.2259 15.69921022  4111","TIME_SYSTEM":"UTC","DECAY_DATE":null,"EPOCH":"2023-06-05T18:37:43.584960","MEAN_MOTION":"15.69921022","ARG_OF_PERICENTER":"266.8532","BSTAR":"0.00001609600000","REV_AT_EPOCH":"411","PERIAPSIS":"356.743","EPHEMERIS_TYPE":"0","FILE":"3925751","OBJECT_TYPE":"PAYLOAD","MEAN_ELEMENT_THEORY":"SGP4","REF_FRAME":"TEME","OBJECT_ID":"2023-064P","NORAD_CAT_ID":"56461","OBJECT_NAME":"STARLINK-6037","SITE":"AFWTR","MEAN_ANOMALY":"93.2259","SEMIMAJOR_AXIS":"6737.260","MEAN_MOTION_DDOT":"0.0000000000000","APOAPSIS":"361.507","COUNTRY_CODE":"US","PERIOD":"91.724","TLE_LINE1":"1 56461U 23064P   23156.77619890  .00001723  00000-0  16096-4 0  9990","ECCENTRICITY":"0.00035360"},{"ECCENTRICITY":"0.00035250","TLE_LINE1":"1 56462U 23064Q   23156.55859406 -.00002465  00000-0 -18737-4 0  9996","PERIOD":"91.725","COUNTRY_CODE":"US","APOAPSIS":"361.513","MEAN_MOTION_DDOT":"0.0000000000000","SEMIMAJOR_AXIS":"6737.274","MEAN_ANOMALY":"91.2409","SITE":"AFWTR","OBJECT_NAME":"STARLINK-6045","NORAD_CAT_ID":"56462","OBJECT_ID":"2023-064Q","REF_FRAME":"TEME","MEAN_ELEMENT_THEORY":"SGP4","OBJECT_TYPE":"PAYLOAD","FILE":"3925751","EPHEMERIS_TYPE":"0","REV_AT_EPOCH":"409","PERIAPSIS":"356.764","BSTAR":"-0.00001873700000","ARG_OF_PERICENTER":"268.8383","MEAN_MOTION":"15.69916263","EPOCH":"2023-06-05T13:24:22.526784","DECAY_DATE":null,"TIME_SYSTEM":"UTC","TLE_LINE2":"2 56462  69.9980 172.0748 0003525 268.8383  91.2409 15.69916263  4094","GP_ID":"233289202","RA_OF_ASC_NODE":"172.0748","ELEMENT_SET_NO":"999","RCS_SIZE":"LARGE","CLASSIFICATION_TYPE":"U","LAUNCH_DATE":"2023-05-10","MEAN_MOTION_DOT":"-0.00002465","CENTER_NAME":"EARTH","INCLINATION":"69.9980"}];
